[{"OBJECT_NAME":"STARLINK-6338","OBJECT_ID":"2023-099AN","EPOCH":"2026-03-09T11:25:05.216448","MEAN_MOTION":15.02534317,"ECCENTRICITY":0.00012194,"INCLINATION":43.0022,"RA_OF_ASC_NODE":237.1673,"ARG_OF_PERICENTER":265.5272,"MEAN_ANOMALY":94.5431,"EPHEMERIS_TYPE":0,"CLASSIFICATION_TYPE":"U","NORAD_CAT_ID":57364,"ELEMENT_SET_NO":999,"REV_AT_EPOCH":14623,"BSTAR":-1.2382029e-5,"MEAN_MOTION_DOT":-3.71e-6,"MEAN_MOTION_DDOT":0},{"OBJECT_NAME":"EXPLORER 25 (INJUN 4)","OBJECT_ID":"1964-076B","EPOCH":"2026-03-09T19:29:30.153120","MEAN_MOTION":12.67105727,"ECCENTRICITY":0.11195082,"INCLINATION":81.3348,"RA_OF_ASC_NODE":94.9725,"ARG_OF_PERICENTER":133.7127,"MEAN_ANOMALY":236.2405,"EPHEMERIS_TYPE":0,"CLASSIFICATION_TYPE":"U","NORAD_CAT_ID":932,"ELEMENT_SET_NO":999,"REV_AT_EPOCH":80654,"BSTAR":0.00017000785,"MEAN_MOTION_DOT":5.05e-6,"MEAN_MOTION_DDOT":0}]
